[{"OBJECT_NAME":"ONEWEB-0208","OBJECT_ID":"2021-031AK","EPOCH":"2026-05-03T06:00:41.086656","MEAN_MOTION":13.14502583,"ECCENTRICITY":0.0001492,"INCLINATION":87.8927,"RA_OF_ASC_NODE":298.6721,"ARG_OF_PERICENTER":84.5239,"MEAN_ANOMALY":275.606,"EPHEMERIS_TYPE":0,"CLASSIFICATION_TYPE":"U","NORAD_CAT_ID":48243,"ELEMENT_SET_NO":999,"REV_AT_EPOCH":24240,"BSTAR":0.00055679,"MEAN_MOTION_DOT":2.19e-06,"MEAN_MOTION_DDOT":0.0},{"OBJECT_NAME":"ONEWEB-0200","OBJECT_ID":"2021-031AL","EPOCH":"2026-05-03T05:08:08.630592","MEAN_MOTION":13.14503684,"ECCENTRICITY":0.000164,"INCLINATION":87.8923,"RA_OF_ASC_NODE":298.6662,"ARG_OF_PERICENTER":93.0816,"MEAN_ANOMALY":267.0502,"EPHEMERIS_TYPE":0,"CLASSIFICATION_TYPE":"U","NORAD_CAT_ID":48244,"ELEMENT_SET_NO":999,"REV_AT_EPOCH":24232,"BSTAR":-0.00039671000000000004,"MEAN_MOTION_DOT":-1.34e-06,"MEAN_MOTION_DDOT":0.0},{"OBJECT_NAME":"ONEWEB-0217","OBJECT_ID":"2021-031AM","EPOCH":"2026-05-03T05:30:59.213664","MEAN_MOTION":13.14503242,"ECCENTRICITY":0.0001444,"INCLINATION":87.893,"RA_OF_ASC_NODE":298.6653,"ARG_OF_PERICENTER":85.6801,"MEAN_ANOMALY":274.4494,"EPHEMERIS_TYPE":0,"CLASSIFICATION_TYPE":"U","NORAD_CAT_ID":48245,"ELEMENT_SET_NO":999,"REV_AT_EPOCH":24227,"BSTAR":0.00014765,"MEAN_MOTION_DOT":6.8e-07,"MEAN_MOTION_DDOT":0.0},{"OBJECT_NAME":"ONEWEB-0211","OBJECT_ID":"2021-045A","EPOCH":"2026-05-03T04:29:26.704896","MEAN_MOTION":13.16194274,"ECCENTRICITY":0.0001484,"INCLINATION":87.8964,"RA_OF_ASC_NODE":268.0632,"ARG_OF_PERICENTER":76.8236,"MEAN_ANOMALY":283.306,"EPHEMERIS_TYPE":0,"CLASSIFICATION_TYPE":"U","NORAD_CAT_ID":48767,"ELEMENT_SET_NO":999,"REV_AT_EPOCH":23852,"BSTAR":-0.00010177999999999999,"MEAN_MOTION_DOT":-2.6e-07,"MEAN_MOTION_DDOT":0.0},{"OBJECT_NAME":"ONEWEB-0223","OBJECT_ID":"2021-045B","EPOCH":"2026-05-03T02:11:26.575584","MEAN_MOTION":13.15548392,"ECCENTRICITY":0.0001771,"INCLINATION":87.8967,"RA_OF_ASC_NODE":268.1788,"ARG_OF_PERICENTER":84.1833,"MEAN_ANOMALY":275.9499,"EPHEMERIS_TYPE":0,"CLASSIFICATION_TYPE":"U","NORAD_CAT_ID":48768,"ELEMENT_SET_NO":999,"REV_AT_EPOCH":23847,"BSTAR":0.00015884000000000002,"MEAN_MOTION_DOT":7.3e-07,"MEAN_MOTION_DDOT":0.0},{"OBJECT_NAME":"ONEWEB-0230","OBJECT_ID":"2021-045C","EPOCH":"2026-05-02T20:01:48.347040","MEAN_MOTION":13.15548307,"ECCENTRICITY":0.0001909,"INCLINATION":87.8955,"RA_OF_ASC_NODE":268.2477,"ARG_OF_PERICENTER":101.2297,"MEAN_ANOMALY":258.9048,"EPHEMERIS_TYPE":0,"CLASSIFICATION_TYPE":"U","NORAD_CAT_ID":48769,"ELEMENT_SET_NO":999,"REV_AT_EPOCH":23870,"BSTAR":4.3595000000000005e-05,"MEAN_MOTION_DOT":2.9e-07,"MEAN_MOTION_DDOT":0.0},{"OBJECT_NAME":"ONEWEB-0237","OBJECT_ID":"2021-045D","EPOCH":"2026-05-03T03:03:55.361376","MEAN_MOTION":13.15548377,"ECCENTRICITY":0.0001933,"INCLINATION":87.8958,"RA_OF_ASC_NODE":268.1909,"ARG_OF_PERICENTER":90.3005,"MEAN_ANOMALY":269.8347,"EPHEMERIS_TYPE":0,"CLASSIFICATION_TYPE":"U","NORAD_CAT_ID":48770,"ELEMENT_SET_NO":999,"REV_AT_EPOCH":23846,"BSTAR":-0.00026056,"MEAN_MOTION_DOT":-8.5e-07,"MEAN_MOTION_DDOT":0.0},{"OBJECT_NAME":"ONEWEB-0235","OBJECT_ID":"2021-045E","EPOCH":"2026-05-03T02:27:23.351040","MEAN_MOTION":13.1554938,"ECCENTRICITY":0.0001847,"INCLINATION":87.8968,"RA_OF_ASC_NODE":268.1774,"ARG_OF_PERICENTER":84.469,"MEAN_ANOMALY":275.6651,"EPHEMERIS_TYPE":0,"CLASSIFICATION_TYPE":"U","NORAD_CAT_ID":48771,"ELEMENT_SET_NO":999,"REV_AT_EPOCH":23845,"BSTAR":8.9677e-05,"MEAN_MOTION_DOT":4.7e-07,"MEAN_MOTION_DDOT":0.0},{"OBJECT_NAME":"ONEWEB-0242","OBJECT_ID":"2021-045F","EPOCH":"2026-05-03T04:07:46.751232","MEAN_MOTION":13.15549528,"ECCENTRICITY":0.0001937,"INCLINATION":87.897,"RA_OF_ASC_NODE":268.1597,"ARG_OF_PERICENTER":94.1017,"MEAN_ANOMALY":266.0335,"EPHEMERIS_TYPE":0,"CLASSIFICATION_TYPE":"U","NORAD_CAT_ID":48772,"ELEMENT_SET_NO":999,"REV_AT_EPOCH":23850,"BSTAR":0.00017035,"MEAN_MOTION_DOT":7.7e-07,"MEAN_MOTION_DDOT":0.0},{"OBJECT_NAME":"ONEWEB-0241","OBJECT_ID":"2021-045G","EPOCH":"2026-05-02T22:20:59.561952","MEAN_MOTION":13.15548043,"ECCENTRICITY":0.0001609,"INCLINATION":87.8958,"RA_OF_ASC_NODE":268.2314,"ARG_OF_PERICENTER":85.1024,"MEAN_ANOMALY":275.0289,"EPHEMERIS_TYPE":0,"CLASSIFICATION_TYPE":"U","NORAD_CAT_ID":48773,"ELEMENT_SET_NO":999,"REV_AT_EPOCH":23838,"BSTAR":0.00024353,"MEAN_MOTION_DOT":1.05e-06,"MEAN_MOTION_DDOT":0.0},{"OBJECT_NAME":"ONEWEB-0243","OBJECT_ID":"2021-045H","EPOCH":"2026-05-03T02:45:39.907008","MEAN_MOTION":13.1554981,"ECCENTRICITY":0.0002244,"INCLINATION":87.8958,"RA_OF_ASC_NODE":268.2061,"ARG_OF_PERICENTER":88.6594,"MEAN_ANOMALY":271.4794,"EPHEMERIS_TYPE":0,"CLASSIFICATION_TYPE":"U","NORAD_CAT_ID":48774,"ELEMENT_SET_NO":999,"REV_AT_EPOCH":23843,"BSTAR":-0.00030593,"MEAN_MOTION_DOT":-1.02e-06,"MEAN_MOTION_DDOT":0.0},{"OBJECT_NAME":"ONEWEB-0222","OBJECT_ID":"2021-045J","EPOCH":"2026-05-03T02:21:42.198048","MEAN_MOTION":13.15548561,"ECCENTRICITY":0.0001765,"INCLINATION":87.8969,"RA_OF_ASC_NODE":268.1738,"ARG_OF_PERICENTER":92.4927,"MEAN_ANOMALY":267.6405,"EPHEMERIS_TYPE":0,"CLASSIFICATION_TYPE":"U","NORAD_CAT_ID":48775,"ELEMENT_SET_NO":999,"REV_AT_EPOCH":23847,"BSTAR":3.6106e-05,"MEAN_MOTION_DOT":2.6e-07,"MEAN_MOTION_DDOT":0.0},{"OBJECT_NAME":"ONEWEB-0244","OBJECT_ID":"2021-045K","EPOCH":"2026-05-03T02:59:20.823648","MEAN_MOTION":13.15548952,"ECCENTRICITY":0.0001866,"INCLINATION":87.897,"RA_OF_ASC_NODE":268.1603,"ARG_OF_PERICENTER":93.8007,"MEAN_ANOMALY":266.3337,"EPHEMERIS_TYPE":0,"CLASSIFICATION_TYPE":"U","NORAD_CAT_ID":48776,"ELEMENT_SET_NO":999,"REV_AT_EPOCH":23904,"BSTAR":-0.00037378,"MEAN_MOTION_DOT":-1.28e-06,"MEAN_MOTION_DDOT":0.0},{"OBJECT_NAME":"ONEWEB-0247","OBJECT_ID":"2021-045L","EPOCH":"2026-05-03T02:54:47.796192","MEAN_MOTION":13.15548758,"ECCENTRICITY":0.000232,"INCLINATION":87.8959,"RA_OF_ASC_NODE":268.1996,"ARG_OF_PERICENTER":78.8986,"MEAN_ANOMALY":281.2405,"EPHEMERIS_TYPE":0,"CLASSIFICATION_TYPE":"U","NORAD_CAT_ID":48777,"ELEMENT_SET_NO":999,"REV_AT_EPOCH":23848,"BSTAR":-0.00038504,"MEAN_MOTION_DOT":-1.32e-06,"MEAN_MOTION_DDOT":0.0},{"OBJECT_NAME":"ONEWEB-0245","OBJECT_ID":"2021-045M","EPOCH":"2026-05-03T02:47:56.527008","MEAN_MOTION":13.15548938,"ECCENTRICITY":0.0001617,"INCLINATION":87.8969,"RA_OF_ASC_NODE":268.1752,"ARG_OF_PERICENTER":93.0969,"MEAN_ANOMALY":267.0346,"EPHEMERIS_TYPE":0,"CLASSIFICATION_TYPE":"U","NORAD_CAT_ID":48778,"ELEMENT_SET_NO":999,"REV_AT_EPOCH":23845,"BSTAR":-0.00028108,"MEAN_MOTION_DOT":-9.3e-07,"MEAN_MOTION_DDOT":0.0},{"OBJECT_NAME":"ONEWEB-0229","OBJECT_ID":"2021-045N","EPOCH":"2026-05-03T02:41:05.192160","MEAN_MOTION":13.15549348,"ECCENTRICITY":0.0001948,"INCLINATION":87.8969,"RA_OF_ASC_NODE":268.1745,"ARG_OF_PERICENTER":95.0258,"MEAN_ANOMALY":265.1095,"EPHEMERIS_TYPE":0,"CLASSIFICATION_TYPE":"U","NORAD_CAT_ID":48779,"ELEMENT_SET_NO":999,"REV_AT_EPOCH":23848,"BSTAR":-0.00024296999999999999,"MEAN_MOTION_DOT":-7.9e-07,"MEAN_MOTION_DDOT":0.0}]