ONEWEB-0208             
1 48243U 21031AK  26123.25047554  .00000219  00000+0  55679-3 0  9990
2 48243  87.8927 298.6721 0001492  84.5239 275.6060 13.14502583242406
ONEWEB-0200             
1 48244U 21031AL  26123.21398878 -.00000134  00000+0 -39671-3 0  9997
2 48244  87.8923 298.6662 0001640  93.0816 267.0502 13.14503684242328
ONEWEB-0217             
1 48245U 21031AM  26123.22985201  .00000068  00000+0  14765-3 0  9992
2 48245  87.8930 298.6653 0001444  85.6801 274.4494 13.14503242242276
ONEWEB-0211             
1 48767U 21045A   26123.18711464 -.00000026  00000+0 -10178-3 0  9999
2 48767  87.8964 268.0632 0001484  76.8236 283.3060 13.16194274238522
ONEWEB-0223             
1 48768U 21045B   26123.09127981  .00000073  00000+0  15884-3 0  9994
2 48768  87.8967 268.1788 0001771  84.1833 275.9499 13.15548392238473
ONEWEB-0230             
1 48769U 21045C   26122.83458735  .00000029  00000+0  43595-4 0  9992
2 48769  87.8955 268.2477 0001909 101.2297 258.9048 13.15548307238708
ONEWEB-0237             
1 48770U 21045D   26123.12772409 -.00000085  00000+0 -26056-3 0  9990
2 48770  87.8958 268.1909 0001933  90.3005 269.8347 13.15548377238467
ONEWEB-0235             
1 48771U 21045E   26123.10235360  .00000047  00000+0  89677-4 0  9994
2 48771  87.8968 268.1774 0001847  84.4690 275.6651 13.15549380238454
ONEWEB-0242             
1 48772U 21045F   26123.17206888  .00000077  00000+0  17035-3 0  9996
2 48772  87.8970 268.1597 0001937  94.1017 266.0335 13.15549528238505
ONEWEB-0241             
1 48773U 21045G   26122.93124493  .00000105  00000+0  24353-3 0  9994
2 48773  87.8958 268.2314 0001609  85.1024 275.0289 13.15548043238389
ONEWEB-0243             
1 48774U 21045H   26123.11504522 -.00000102  00000+0 -30593-3 0  9993
2 48774  87.8958 268.2061 0002244  88.6594 271.4794 13.15549810238435
ONEWEB-0222             
1 48775U 21045J   26123.09840507  .00000026  00000+0  36106-4 0  9997
2 48775  87.8969 268.1738 0001765  92.4927 267.6405 13.15548561238470
ONEWEB-0244             
1 48776U 21045K   26123.12454657 -.00000128  00000+0 -37378-3 0  9995
2 48776  87.8970 268.1603 0001866  93.8007 266.3337 13.15548952239048
ONEWEB-0247             
1 48777U 21045L   26123.12138653 -.00000132  00000+0 -38504-3 0  9998
2 48777  87.8959 268.1996 0002320  78.8986 281.2405 13.15548758238489
ONEWEB-0245             
1 48778U 21045M   26123.11662647 -.00000093  00000+0 -28108-3 0  9998
2 48778  87.8969 268.1752 0001617  93.0969 267.0346 13.15548938238452
ONEWEB-0229             
1 48779U 21045N   26123.11186565 -.00000079  00000+0 -24297-3 0  9998
2 48779  87.8969 268.1745 0001948  95.0258 265.1095 13.15549348238484
